[
    {
        "Altitude(m)": 604221.212653835,
        "Argument of Periapsis(deg)": 0.0,
        "Eccentricity": 0.0,
        "Inclination(deg)": 60.0,
        "Latitude(deg)": 14.117293338166501,
        "Longitude(deg)": 13.334122630306608,
        "Mean Anomaly(deg)": 16.363600000000012,
        "RAAN(deg)": 105.0,
        "Satellite Name": "Test1 463",
        "Satellite Number": 463,
        "Semi-Major Axis(m)": 6980739.136638005,
        "Time(s)": 0
    },
    {
        "Altitude(m)": 604235.3539689865,
        "Argument of Periapsis(deg)": 0.00010418945913296404,
        "Eccentricity": 0.0,
        "Inclination(deg)": 60.0,
        "Latitude(deg)": 14.651690729921441,
        "Longitude(deg)": 13.622568404727746,
        "Mean Anomaly(deg)": 16.983706145461827,
        "RAAN(deg)": 104.99957995086028,
        "Satellite Name": "Test1 463",
        "Satellite Number": 463,
        "Semi-Major Axis(m)": 6980739.136638005,
        "Time(s)": 10
    }
]